{"type": "FeatureCollection", "features": [ {"type": "Feature", "properties": {"norad_id": 66526, "name": "STARLINK-35932", "group": "last-30-days", "lat": 30.91213022896187, "lon": 104.24101669148861, "alt_km": 411.0449497566906, "timestamp": "2025-12-10T23:33:11.622573+00:00", "meta": {"OBJECT_NAME": "STARLINK-35932", "OBJECT_ID": "2025-265L", "EPOCH": "2025-12-10T14:00:03.000384", "MEAN_MOTION": 15.50641662, "ECCENTRICITY": 0.00015453, "INCLINATION": 42.9998, "RA_OF_ASC_NODE": 66.5858, "ARG_OF_PERICENTER": 271.8254, "MEAN_ANOMALY": 72.6925, "EPHEMERIS_TYPE": 0, "CLASSIFICATION_TYPE": "U", "NORAD_CAT_ID": 66526, "ELEMENT_SET_NO": 999, "REV_AT_EPOCH": 453, "BSTAR": -0.0027639838, "MEAN_MOTION_DOT": -0.00159589, "MEAN_MOTION_DDOT": 0}, "tle": {"line1": "1 66526U 25265L   25344.58336806 -.00159589  00000+0 -27640-2 0  9991", "line2": "2 66526  42.9998  66.5858 0001545 271.8254  72.6925 15.50641662  4539"}}, "geometry": {"type": "Point", "coordinates": [104.24101669148861, 30.91213022896187]}}, {"type": "Feature", "properties": {"norad_id": 66527, "name": "STARLINK-35935", "group": "last-30-days", "lat": 31.894942492356062, "lon": 106.15386358609365, "alt_km": 410.86881800608717, "timestamp": "2025-12-10T23:33:11.622582+00:00", "meta": {"OBJECT_NAME": "STARLINK-35935", "OBJECT_ID": "2025-265M", "EPOCH": "2025-12-10T14:00:03.000384", "MEAN_MOTION": 15.50625567, "ECCENTRICITY": 0.00014325, "INCLINATION": 43.0002, "RA_OF_ASC_NODE": 66.5825, "ARG_OF_PERICENTER": 268.4858, "MEAN_ANOMALY": 77.9456, "EPHEMERIS_TYPE": 0, "CLASSIFICATION_TYPE": "U", "NORAD_CAT_ID": 66527, "ELEMENT_SET_NO": 999, "REV_AT_EPOCH": 464, "BSTAR": -0.0022400612, "MEAN_MOTION_DOT": -0.00129815, "MEAN_MOTION_DDOT": 0}, "tle": {"line1": "1 66527U 25265M   25344.58336806 -.00129815  00000+0 -22401-2 0  9991", "line2": "2 66527  43.0002  66.5825 0001432 268.4858  77.9456 15.50625567  4644"}}, "geometry": {"type": "Point", "coordinates": [106.15386358609365, 31.894942492356062]}}, {"type": "Feature", "properties": {"norad_id": 66528, "name": "STARLINK-35928", "group": "last-30-days", "lat": 32.85388244003826, "lon": 108.11719386038043, "alt_km": 410.5977370778928, "timestamp": "2025-12-10T23:33:11.622592+00:00", "meta": {"OBJECT_NAME": "STARLINK-35928", "OBJECT_ID": "2025-265N", "EPOCH": "2025-12-10T14:00:03.000384", "MEAN_MOTION": 15.50618225, "ECCENTRICITY": 0.00014715, "INCLINATION": 43.0001, "RA_OF_ASC_NODE": 66.5765, "ARG_OF_PERICENTER": 279.6896, "MEAN_ANOMALY": 68.6576, "EPHEMERIS_TYPE": 0, "CLASSIFICATION_TYPE": "U", "NORAD_CAT_ID": 66528, "ELEMENT_SET_NO": 999, "REV_AT_EPOCH": 464, "BSTAR": -0.0019390963, "MEAN_MOTION_DOT": -0.00112635, "MEAN_MOTION_DDOT": 0}, "tle": {"line1": "1 66528U 25265N   25344.58336806 -.00112635  00000+0 -19391-2 0  9998", "line2": "2 66528  43.0001  66.5765 0001471 279.6896  68.6576 15.50618225  4649"}}, "geometry": {"type": "Point", "coordinates": [108.11719386038043, 32.85388244003826]}}, {"type": "Feature", "properties": {"norad_id": 66529, "name": "STARLINK-35933", "group": "last-30-days", "lat": 33.746785447555524, "lon": 110.04740794614526, "alt_km": 411.30216524242405, "timestamp": "2025-12-10T23:33:11.622603+00:00", "meta": {"OBJECT_NAME": "STARLINK-35933", "OBJECT_ID": "2025-265P", "EPOCH": "2025-12-10T14:00:03.000384", "MEAN_MOTION": 15.50774479, "ECCENTRICITY": 0.0001697, "INCLINATION": 42.9997, "RA_OF_ASC_NODE": 66.5713, "ARG_OF_PERICENTER": 274.3098, "MEAN_ANOMALY": 75.9255, "EPHEMERIS_TYPE": 0, "CLASSIFICATION_TYPE": "U", "NORAD_CAT_ID": 66529, "ELEMENT_SET_NO": 999, "REV_AT_EPOCH": 464, "BSTAR": -0.0099249379, "MEAN_MOTION_DOT": -0.00547463, "MEAN_MOTION_DDOT": 0}, "tle": {"line1": "1 66529U 25265P   25344.58336806 -.00547463  00000+0 -99249-2 0  9990", "line2": "2 66529  42.9997  66.5713 0001697 274.3098  75.9255 15.50774479  4640"}}, "geometry": {"type": "Point", "coordinates": [110.04740794614526, 33.746785447555524]}}, {"type": "Feature", "properties": {"norad_id": 66530, "name": "STARLINK-35961", "group": "last-30-days", "lat": 34.67697126407953, "lon": 112.17727025427439, "alt_km": 410.49238780436644, "timestamp": "2025-12-10T23:33:11.622612+00:00", "meta": {"OBJECT_NAME": "STARLINK-35961", "OBJECT_ID": "2025-265Q", "EPOCH": "2025-12-10T14:00:03.000384", "MEAN_MOTION": 15.50627851, "ECCENTRICITY": 0.0001556, "INCLINATION": 43, "RA_OF_ASC_NODE": 66.5665, "ARG_OF_PERICENTER": 273.2847, "MEAN_ANOMALY": 78.8993, "EPHEMERIS_TYPE": 0, "CLASSIFICATION_TYPE": "U", "NORAD_CAT_ID": 66530, "ELEMENT_SET_NO": 999, "REV_AT_EPOCH": 464, "BSTAR": -0.0022583881, "MEAN_MOTION_DOT": -0.00130869, "MEAN_MOTION_DDOT": 0}, "tle": {"line1": "1 66530U 25265Q   25344.58336806 -.00130869  00000+0 -22584-2 0  9998", "line2": "2 66530  43.0000  66.5665 0001556 273.2847  78.8993 15.50627851  4641"}}, "geometry": {"type": "Point", "coordinates": [112.17727025427439, 34.67697126407953]}}, {"type": "Feature", "properties": {"norad_id": 66531, "name": "STARLINK-35960", "group": "last-30-days", "lat": 35.541521068511784, "lon": 114.28613113690739, "alt_km": 410.4910629896476, "timestamp": "2025-12-10T23:33:11.622621+00:00", "meta": {"OBJECT_NAME": "STARLINK-35960", "OBJECT_ID": "2025-265R", "EPOCH": "2025-12-10T14:00:03.000384", "MEAN_MOTION": 15.50665708, "ECCENTRICITY": 0.00014997, "INCLINATION": 43.0001, "RA_OF_ASC_NODE": 66.5624, "ARG_OF_PERICENTER": 265.9872, "MEAN_ANOMALY": 88.1195, "EPHEMERIS_TYPE": 0, "CLASSIFICATION_TYPE": "U", "NORAD_CAT_ID": 66531, "ELEMENT_SET_NO": 999, "REV_AT_EPOCH": 464, "BSTAR": -0.0035727521, "MEAN_MOTION_DOT": -0.00205176, "MEAN_MOTION_DDOT": 0}, "tle": {"line1": "1 66531U 25265R   25344.58336806 -.00205176  00000+0 -35728-2 0  9997", "line2": "2 66531  43.0001  66.5624 0001499 265.9872  88.1195 15.50665708  4641"}}, "geometry": {"type": "Point", "coordinates": [114.28613113690739, 35.541521068511784]}}, {"type": "Feature", "properties": {"norad_id": 66532, "name": "STARLINK-35914", "group": "last-30-days", "lat": 36.35654243166856, "lon": 116.40768792005966, "alt_km": 410.3205480762117, "timestamp": "2025-12-10T23:33:11.622631+00:00", "meta": {"OBJECT_NAME": "STARLINK-35914", "OBJECT_ID": "2025-265S", "EPOCH": "2025-12-10T14:00:03.000384", "MEAN_MOTION": 15.50636643, "ECCENTRICITY": 0.00015369, "INCLINATION": 43.0002, "RA_OF_ASC_NODE": 66.558, "ARG_OF_PERICENTER": 269.6807, "MEAN_ANOMALY": 86.3375, "EPHEMERIS_TYPE": 0, "CLASSIFICATION_TYPE": "U", "NORAD_CAT_ID": 66532, "ELEMENT_SET_NO": 999, "REV_AT_EPOCH": 464, "BSTAR": -0.0026368334, "MEAN_MOTION_DOT": -0.00152374, "MEAN_MOTION_DDOT": 0}, "tle": {"line1": "1 66532U 25265S   25344.58336806 -.00152374  00000+0 -26368-2 0  9999", "line2": "2 66532  43.0002  66.5580 0001536 269.6807  86.3375 15.50636643  4641"}}, "geometry": {"type": "Point", "coordinates": [116.40768792005966, 36.35654243166856]}}, {"type": "Feature", "properties": {"norad_id": 66533, "name": "STARLINK-35707", "group": "last-30-days", "lat": 37.13876959782159, "lon": 118.5892935101348, "alt_km": 410.1220904894926, "timestamp": "2025-12-10T23:33:11.622641+00:00", "meta": {"OBJECT_NAME": "STARLINK-35707", "OBJECT_ID": "2025-265T", "EPOCH": "2025-12-10T14:00:03.000384", "MEAN_MOTION": 15.50620375, "ECCENTRICITY": 0.00015282, "INCLINATION": 42.9999, "RA_OF_ASC_NODE": 66.5523, "ARG_OF_PERICENTER": 274.304, "MEAN_ANOMALY": 83.632, "EPHEMERIS_TYPE": 0, "CLASSIFICATION_TYPE": "U", "NORAD_CAT_ID": 66533, "ELEMENT_SET_NO": 999, "REV_AT_EPOCH": 464, "BSTAR": -0.0019898042, "MEAN_MOTION_DOT": -0.00115539, "MEAN_MOTION_DDOT": 0}, "tle": {"line1": "1 66533U 25265T   25344.58336806 -.00115539  00000+0 -19898-2 0  9992", "line2": "2 66533  42.9999  66.5523 0001528 274.3040  83.6320 15.50620375  4640"}}, "geometry": {"type": "Point", "coordinates": [118.5892935101348, 37.13876959782159]}}, {"type": "Feature", "properties": {"norad_id": 66534, "name": "STARLINK-35976", "group": "last-30-days", "lat": 37.880017108707165, "lon": 120.81511375639323, "alt_km": 410.0978701116219, "timestamp": "2025-12-10T23:33:11.622650+00:00", "meta": {"OBJECT_NAME": "STARLINK-35976", "OBJECT_ID": "2025-265U", "EPOCH": "2025-12-10T14:00:03.000384", "MEAN_MOTION": 15.50626588, "ECCENTRICITY": 0.00015718, "INCLINATION": 43.0001, "RA_OF_ASC_NODE": 66.5477, "ARG_OF_PERICENTER": 271.1524, "MEAN_ANOMALY": 88.7003, "EPHEMERIS_TYPE": 0, "CLASSIFICATION_TYPE": "U", "NORAD_CAT_ID": 66534, "ELEMENT_SET_NO": 999, "REV_AT_EPOCH": 464, "BSTAR": -0.0022508326, "MEAN_MOTION_DOT": -0.00130434, "MEAN_MOTION_DDOT": 0}, "tle": {"line1": "1 66534U 25265U   25344.58336806 -.00130434  00000+0 -22508-2 0  9996", "line2": "2 66534  43.0001  66.5477 0001571 271.1524  88.7003 15.50626588  4641"}}, "geometry": {"type": "Point", "coordinates": [120.81511375639323, 37.880017108707165]}}, {"type": "Feature", "properties": {"norad_id": 66535, "name": "STARLINK-35514", "group": "last-30-days", "lat": 38.57904285994514, "lon": 123.08773875757412, "alt_km": 409.9056491139954, "timestamp": "2025-12-10T23:33:11.622659+00:00", "meta": {"OBJECT_NAME": "STARLINK-35514", "OBJECT_ID": "2025-265V", "EPOCH": "2025-12-10T14:00:03.000384", "MEAN_MOTION": 15.50624551, "ECCENTRICITY": 0.00014748, "INCLINATION": 43.0001, "RA_OF_ASC_NODE": 66.5429, "ARG_OF_PERICENTER": 273.9372, "MEAN_ANOMALY": 87.8314, "EPHEMERIS_TYPE": 0, "CLASSIFICATION_TYPE": "U", "NORAD_CAT_ID": 66535, "ELEMENT_SET_NO": 999, "REV_AT_EPOCH": 464, "BSTAR": -0.0020857685, "MEAN_MOTION_DOT": -0.00121028, "MEAN_MOTION_DDOT": 0}, "tle": {"line1": "1 66535U 25265V   25344.58336806 -.00121028  00000+0 -20858-2 0  9992", "line2": "2 66535  43.0001  66.5429 0001474 273.9372  87.8314 15.50624551  4645"}}, "geometry": {"type": "Point", "coordinates": [123.08773875757412, 38.57904285994514]}}]}